satname,norad_id,inclination_deg,eccentricity,mean_motion_rev_per_day,perigee_km,apogee_km,l1,l2
STARLINK-1210,45207,53.0295,0.0009915,15.44795686,425.2262450668168,438.73070405286853,1 45207U 20012AF  25255.19239814  .00102307  00000+0  21278-2 0  9993,2 45207  53.0295  63.3054 0009915 209.2142 150.8310 15.44795686308845
STARLINK-1231,45212,53.0525,0.0003843,15.08436073,538.3192916979488,543.6373237234548,1 45212U 20012AL  25254.87346449  .00018044  00000+0  11614-2 0  9993,2 45212  53.0525 109.0382 0003843 131.3430 228.7892 15.08436073308121
STARLINK-1271,45217,53.0532,0.0001448,15.0640215,546.2021789887312,548.2077580228106,1 45217U 20012AR  25254.91477766  .00002454  00000+0  18361-3 0  9995,2 45217  53.0532 109.1699 0001448  87.7578 272.3577 15.06402150308179
STARLINK-1191,45222,53.0541,0.0001309,15.06394195,546.3228190291911,548.1358799394866,1 45222U 20012AW  25255.52112139  .00001033  00000+0  88267-4 0  9994,2 45222  53.0541  86.4479 0001309  95.6173 264.4966 15.06394195308547
STARLINK-1212,45223,53.0547,0.0001423,15.06393004,546.2475196026862,548.2184799046172,1 45223U 20012AX  25255.53962707  .00000017  00000+0  20019-4 0  9992,2 45223  53.0547  87.0205 0001423  90.8790 269.2362 15.06393004308548
STARLINK-1215,45225,53.054,8.35e-05,15.06397691,546.6403675042629,547.7969018952572,1 45225U 20012AZ  25255.56166447 -.00001508  00000+0 -82408-4 0  9992,2 45225  53.0540  86.2652 0000835 103.2111 256.8971 15.06397691308502
STARLINK-1217,45226,53.046,0.0003666,15.83273785,318.73378073256936,323.6457271085437,1 45226U 20012BA  25255.58335648  .00183169  00000+0  81527-3 0  9998,2 45226  53.0460  42.0564 0003666 143.6905 269.4298 15.83273785  5823
STARLINK-1221,45227,53.0702,0.0004652,15.34801177,458.3293130499451,464.6929216583312,1 45227U 20012BB  25254.66459430  .00012559  00000+0  37735-3 0  9999,2 45227  53.0702  33.3352 0004652 152.7838 207.3408 15.34801177309158
STARLINK-1222,45228,53.0549,0.000141,15.06402962,546.2260069831009,548.1789527164183,1 45228U 20012BC  25255.52849039  .00002214  00000+0  16747-3 0  9991,2 45228  53.0549  86.4112 0001410  94.2838 265.8312 15.06402962308431
STARLINK-1226,45229,53.0535,0.0001797,15.06404471,545.9533723276681,548.4423376745544,1 45229U 20012BD  25255.55798811  .00003077  00000+0  22536-3 0  9997,2 45229  53.0535  86.2807 0001797  88.9527 271.1668 15.06404471308441
STARLINK-1227,45230,53.055,0.0001379,15.06398374,546.261535145215,548.1715476519321,1 45230U 20012BE  25255.55428956  .00001023  00000+0  87546-4 0  9991,2 45230  53.0550  86.2975 0001379  92.8849 267.2298 15.06398374308565
STARLINK-1238,45233,53.039,0.0001943,15.91212309,297.59197445081827,300.18666687902896,1 45233U 20012BH  25255.58335648  .00305315  45891-4  94581-3 0  9991,2 45233  53.0390  58.6797 0001943 103.7979 265.1065 15.91212309  6008
STARLINK-1246,45235,53.0538,0.0001384,15.06395148,546.2679583608497,548.184898957903,1 45235U 20012BK  25254.90556394 -.00000985  00000+0 -47275-4 0  9995,2 45235  53.0538 129.2116 0001384  91.3441 268.7706 15.06395148307913
STARLINK-1247,45236,53.0415,0.0001302,15.90349903,300.43329299088055,302.1726191554426,1 45236U 20012BL  25255.58335648  .00294179  00000+0  91340-3 0  9997,2 45236  53.0415  38.5841 0001302 125.4552 267.2405 15.90349903  5845
STARLINK-1270,45237,53.0552,0.0001361,15.06389513,546.3011549561652,548.186243582506,1 45237U 20012BM  25255.57272485  .00000150  00000+0  28998-4 0  9990,2 45237  53.0552  86.2164 0001361  93.0939 267.0206 15.06389513308559
STARLINK-1279,45360,53.0553,0.0001279,15.06396533,546.3364303747094,548.1079372539289,1 45360U 20019A   25255.59759214  .00000747  00000+0  69033-4 0  9993,2 45360  53.0553 216.1040 0001279  87.6711 272.4424 15.06396533303297
STARLINK-1301,45361,53.0542,0.0001258,15.06394734,546.3564866379029,548.0989083957984,1 45361U 20019B   25254.65676274  .00001211  00000+0  10021-3 0  9993,2 45361  53.0542 230.3293 0001258  83.1788 276.9345 15.06394734303029
STARLINK-1306,45362,53.0519,0.0008164,15.53837617,399.9954507951179,411.07182821530205,1 45362U 20019C   25255.58335648  .00091410  00000+0  13869-2 0  9996,2 45362  53.0519 232.5793 0008164  41.8577 142.4481 15.53837617  5967
STARLINK-1262,45366,53.0531,0.0001464,15.06396401,546.2087157331498,548.2364610206259,1 45366U 20019G   25255.28521562 -.00000769  00000+0 -32766-4 0  9997,2 45366  53.0531 247.5054 0001464  89.0866 271.0291 15.06396401302846
STARLINK-1273,45367,53.0527,0.0001314,15.06397195,546.3101629424718,548.1301468027723,1 45367U 20019H   25255.24098633  .00000595  00000+0  58859-4 0  9998,2 45367  53.0527 247.7090 0001314  88.4079 271.7061 15.06397195302839
STARLINK-1276,45368,53.0524,0.0001176,15.06394414,546.4142552728845,548.0431012804165,1 45368U 20019J   25255.27784173  .00000428  00000+0  47596-4 0  9994,2 45368  53.0524 247.5418 0001176  82.7172 277.3950 15.06394414302847
STARLINK-1277,45369,53.0537,0.000139,15.0640749,546.225982003436,548.1512225208635,1 45369U 20019K   25255.27056023  .00003741  00000+0  26982-3 0  9997,2 45369  53.0537 248.2041 0001390  83.8375 276.2773 15.06407490302836
STARLINK-1281,45370,53.0544,0.0001297,15.0637777,546.3814639796728,548.1779170691952,1 45370U 20019L   25255.26680126  .00001073  00000+0  90941-4 0  9998,2 45370  53.0544 247.5915 0001297  87.4786 272.6351 15.06377770302840
STARLINK-1300,45374,53.0539,0.0001368,15.06394657,546.2805435892406,548.1753234350499,1 45374U 20019Q   25254.42639295  .00000093  00000+0  25118-4 0  9995,2 45374  53.0539 251.3620 0001368  89.2286 270.8860 15.06394657302712
STARLINK-1302,45375,53.0531,0.0001211,15.0639853,546.3774030242594,548.0547235361864,1 45375U 20019R   25255.23729877 -.00000476  00000+0 -13041-4 0  9991,2 45375  53.0531 247.7255 0001211  82.0537 278.0589 15.06398530302830
STARLINK-1304,45376,53.0514,0.0001749,15.06399888,546.0006576793476,548.4231447249877,1 45376U 20019S   25255.38841388 -.00003458  00000+0 -21337-3 0  9999,2 45376  53.0514 247.0470 0001749  92.8683 267.2506 15.06399888302859
STARLINK-1305,45377,53.0523,0.0002543,15.0639713,545.4592357137417,548.981472464031,1 45377U 20019T   25255.28151089 -.00002367  00000+0 -14004-3 0  9992,2 45377  53.0523 247.5222 0002543  94.8691 265.2588 15.06397130302849
STARLINK-1319,45379,53.0533,0.0001482,15.06408713,546.1585212781329,548.2111866756513,1 45379U 20019V   25255.27416037  .00002380  00000+0  17857-3 0  9992,2 45379  53.0533 247.5596 0001482  87.4560 272.6599 15.06408713302844
STARLINK-1258,45381,53.0453,0.0007199,15.94968906,283.6017862069284,293.200267658106,1 45381U 20019X   25255.58335648  .00386330  70318-4  97764-3 0  9996,2 45381  53.0453 176.5974 0007199 109.8893 218.5465 15.94968906  5942
STARLINK-1266,45383,53.0538,0.0001598,15.06407449,546.0820608688855,548.2953949715293,1 45383U 20019Z   25255.20965543 -.00000116  00000+0  11101-4 0  9994,2 45383  53.0538 227.8489 0001598  88.3492 271.7680 15.06407449303104
STARLINK-1267,45384,53.0534,0.0001469,15.06399986,546.194267136797,548.2289345557256,1 45384U 20019AA  25255.19498576  .00000916  00000+0  80411-4 0  9997,2 45384  53.0534 228.5706 0001469  93.8209 266.2948 15.06399986303095
STARLINK-1272,45386,53.0551,0.0001323,15.06406406,546.2757035237701,548.1081455572039,1 45386U 20019AC  25255.20227026  .00000720  00000+0  67238-4 0  9996,2 45386  53.0551 227.8821 0001323  89.8950 270.2190 15.06406406303105
STARLINK-1274,45387,53.0411,0.0007929,15.23835304,488.83587575663114,499.7341625946392,1 45387U 20019AD  25254.62907059  .00043196  00000+0  17712-2 0  9997,2 45387  53.0411 222.7769 0007929  32.5080 327.6403 15.23835304303121
STARLINK-1280,45388,53.0539,0.000141,15.06399199,546.2375383961826,548.1904873818166,1 45388U 20019AE  25255.25940969  .00001039  00000+0  88654-4 0  9990,2 45388  53.0539 247.6264 0001410  84.4624 275.6526 15.06399199302820
STARLINK-1283,45389,53.0549,0.0001264,15.06388669,546.3709175916438,548.1216544863546,1 45389U 20019AF  25254.64203484  .00001274  00000+0  10440-3 0  9995,2 45389  53.0549 230.3954 0001264  89.0271 271.0863 15.06388669303020
STARLINK-1284,45390,53.0516,4.27e-05,15.06400724,546.9136266947671,547.5050512721164,1 45390U 20019AG  25255.21333131  .00000886  00000+0  78344-4 0  9990,2 45390  53.0516 227.8307 0000427  83.5384 276.5654 15.06400724303107
STARLINK-1292,45394,53.0508,0.000434,15.69763997,356.64807029558233,362.4964019125209,1 45394U 20019AL  25255.58335648  .00147663  00000+0  11989-2 0  9994,2 45394  53.0508 202.3837 0004340 108.2800 255.5357 15.69763997  5899
STARLINK-1297,45395,53.0544,0.0001149,15.063865,546.4572064995282,548.048661106317,1 45395U 20019AM  25254.65308340  .00001090  00000+0  92085-4 0  9992,2 45395  53.0544 230.3460 0001149  78.6739 281.4380 15.06386500302209
STARLINK-1307,45397,53.0543,0.0001839,15.06407284,545.915666122959,548.4628011116829,1 45397U 20019AP  25254.64569166  .00000042  00000+0  21740-4 0  9994,2 45397  53.0543 230.3774 0001839  84.4771 275.6428 15.06407284302846
STARLINK-1312,45398,53.0502,0.0011294,15.67392818,358.74856459547027,373.98304753380853,1 45398U 20019AQ  25255.58335648  .00157549  00000+0  14040-2 0  9993,2 45398  53.0502 201.6661 0011294  47.9528 246.1842 15.67392818  5990
STARLINK-1255,45399,53.0547,0.0001197,15.06399626,546.383739835057,548.0416685542405,1 45399U 20019AR  25254.94520364  .00001747  00000+0  13611-3 0  9996,2 45399  53.0547 219.0363 0001197  93.8884 266.2242 15.06399626303016
STARLINK-1259,45403,53.0488,0.001056,15.79258159,325.4548533049783,339.62780593713796,1 45403U 20019AV  25255.58335648  .00188115  00000+0  10042-2 0  9991,2 45403  53.0488 184.4544 0010560  56.3194 250.7194 15.79258159  5821
STARLINK-1260,45404,53.0539,0.00015,15.06399608,546.1739568981757,548.2515618259849,1 45404U 20019AW  25254.64662149  .00000756  00000+0  69628-4 0  9997,2 45404  53.0539 220.3770 0001500  86.6882 273.4279 15.06399608302870
